{
  "55421": {
    "noradId": "55421",
    "tle": [
      "1 55421C 23014AG  26106.97062500  .00007219  00000+0  60504-3 0  1067",
      "2 55421  70.0016 347.9246 0003100 272.0269 197.1959 14.98322215    19"
    ]
  },
  "55422": {
    "noradId": "55422",
    "tle": [
      "1 55422C 23014AH  26106.92201389 -.00011240  00000+0 -94208-3 0  1062",
      "2 55422  70.0019 347.9167 0002831 270.4822  49.1632 14.98330570    19"
    ]
  },
  "55423": {
    "noradId": "55423",
    "tle": [
      "1 55423C 23014AJ  26106.93798611 -.00003620  00000+0 -30337-3 0  1069",
      "2 55423  70.0019 348.1063 0002731 270.8394 292.3532 14.98330483    19"
    ]
  },
  "55425": {
    "noradId": "55425",
    "tle": [
      "1 55425C 23014AL  26106.96229167 -.00016468  00000+0 -13802-2 0  1060",
      "2 55425  70.0018 347.9965 0002781 273.3138 105.9742 14.98336781    16"
    ]
  },
  "55426": {
    "noradId": "55426",
    "tle": [
      "1 55426C 23014AM  26106.95326389  .00006255  00000+0  52425-3 0  1060",
      "2 55426  70.0020 348.1190 0002897 271.8937 328.6683 14.98324039    12"
    ]
  },
  "55428": {
    "noradId": "55428",
    "tle": [
      "1 55428C 23014AP  26106.91923611 -.00011154  00000+0 -93529-3 0  1065",
      "2 55428  70.0020 348.2555 0003155 275.6150  96.5659 14.98312338    10"
    ]
  },
  "55429": {
    "noradId": "55429",
    "tle": [
      "1 55429C 23014AQ  26106.94423611  .00007206  00000+0  60414-3 0  1062",
      "2 55429  70.0020 348.1171 0002566 276.9286 297.4112 14.98310432    12"
    ]
  },
  "55430": {
    "noradId": "55430",
    "tle": [
      "1 55430C 23014AR  26106.97965278 -.00022293  00000+0 -18683-2 0  1062",
      "2 55430  70.0027   7.8364 0002703 271.9490 177.2432 14.98340887    16"
    ]
  },
  "55431": {
    "noradId": "55431",
    "tle": [
      "1 55431C 23014AS  26106.95395833  .00006139  00000+0  51452-3 0  1066",
      "2 55431  70.0020 348.1425 0002855 272.7486 309.0529 14.98321853    15"
    ]
  },
  "55432": {
    "noradId": "55432",
    "tle": [
      "1 55432C 23014AT  26106.95118056 -.00018378  00000+0 -15404-2 0  1063",
      "2 55432  70.0026   7.9606 0002593 271.7737 337.9660 14.98334410    19"
    ]
  },
  "55433": {
    "noradId": "55433",
    "tle": [
      "1 55433C 23014AU  26106.91159722 -.00039079  00000+0 -32750-2 0  1069",
      "2 55433  70.0029   7.9833 0002477 272.1454 192.5656 14.98351394    17"
    ]
  },
  "55434": {
    "noradId": "55434",
    "tle": [
      "1 55434C 23014AV  26106.97965278 -.00013859  00000+0 -11615-2 0  1062",
      "2 55434  70.0022   7.9381 0002762 271.1532  87.9970 14.98334607    16"
    ]
  },
  "55435": {
    "noradId": "55435",
    "tle": [
      "1 55435C 23014AW  26106.89701389 -.00040132  00000+0 -33632-2 0  1062",
      "2 55435  70.0026   8.0972 0002903 270.0637  48.4765 14.98352069    16"
    ]
  },
  "55436": {
    "noradId": "55436",
    "tle": [
      "1 55436C 23014AX  26106.94562500 -.00023860  00000+0 -20004-2 0  1067",
      "2 55436  70.0022   8.0490 0002771 272.6010 240.4952 14.98327644    17"
    ]
  },
  "55438": {
    "noradId": "55438",
    "tle": [
      "1 55438C 23014AZ  26106.92826389 -.00060935  00000+0 -51063-2 0  1068",
      "2 55438  70.0003 327.8716 0002863 273.9479 238.2344 14.98363464    16"
    ]
  },
  "55439": {
    "noradId": "55439",
    "tle": [
      "1 55439C 23014BA  26106.92479167 -.00030459  00000+0 -25531-2 0  1066",
      "2 55439  70.0023   8.1284 0002790 268.0806 110.1974 14.98338315    10"
    ]
  },
  "55449": {
    "noradId": "55449",
    "tle": [
      "1 55449C 23015A   26106.97826389  .00022136  00000+0  82245-3 0  1062",
      "2 55449  43.0000 112.5551 0001650 267.5307 214.8580 15.26730099    19"
    ]
  },
  "55450": {
    "noradId": "55450",
    "tle": [
      "1 55450C 23015B   26106.98034722  .00021450  00000+0  79684-3 0  1068",
      "2 55450  43.0003 112.5184 0001905 268.0965 236.8984 15.26735012    17"
    ]
  },
  "55451": {
    "noradId": "55451",
    "tle": [
      "1 55451C 23015C   26106.97062500  .00031541  00000+0  11719-2 0  1069",
      "2 55451  43.0005 112.8600 0001126 262.5226  65.3896 15.26727089    12"
    ]
  },
  "55452": {
    "noradId": "55452",
    "tle": [
      "1 55452C 23015D   26106.91368056  .00032676  00000+0  12143-2 0  1061",
      "2 55452  43.0004 113.2077 0001256 262.0721  98.9006 15.26719681    18"
    ]
  },
  "55453": {
    "noradId": "55453",
    "tle": [
      "1 55453C 23015E   26106.92131944  .00033084  00000+0  12293-2 0  1067",
      "2 55453  43.0007 112.5272 0001488 268.4326  45.4586 15.26723739    18"
    ]
  },
  "55454": {
    "noradId": "55454",
    "tle": [
      "1 55454C 23015F   26106.94076389  .00030773  00000+0  11421-2 0  1065",
      "2 55454  43.0001 112.3937 0001450 255.7335 170.5624 15.26761484    19"
    ]
  },
  "55455": {
    "noradId": "55455",
    "tle": [
      "1 55455C 23015G   26106.93659722  .00026891  00000+0  97407-3 0  1068",
      "2 55455  43.0008 113.1281 0000591 237.5144 229.6734 15.27563626    16"
    ]
  },
  "55456": {
    "noradId": "55456",
    "tle": [
      "1 55456C 23015H   26106.97548611  .00022785  00000+0  84653-3 0  1064",
      "2 55456  43.0028 112.3982 0001869 276.2087 263.3854 15.26730289    11"
    ]
  },
  "55457": {
    "noradId": "55457",
    "tle": [
      "1 55457C 23015J   26106.91993056  .00032608  00000+0  12106-2 0  1064",
      "2 55457  43.0000 112.5306 0001349 257.7473  50.0464 15.26751546    17"
    ]
  },
  "55458": {
    "noradId": "55458",
    "tle": [
      "1 55458C 23015K   26106.98798611  .00019134  00000+0  71083-3 0  1061",
      "2 55458  42.9995 112.5562 0001428 264.7493 244.1581 15.26735426    16"
    ]
  },
  "55459": {
    "noradId": "55459",
    "tle": [
      "1 55459C 23015L   26106.93659722  .00034613  00000+0  12861-2 0  1063",
      "2 55459  43.0029 112.5679 0001774 279.7085  65.4146 15.26722327    10"
    ]
  },
  "55460": {
    "noradId": "55460",
    "tle": [
      "1 55460C 23015M   26106.97687500  .00022972  00000+0  85354-3 0  1067",
      "2 55460  43.0001 112.5479 0001720 267.8534 210.8650 15.26727921    19"
    ]
  },
  "55461": {
    "noradId": "55461",
    "tle": [
      "1 55461C 23015N   26106.94631944  .00034675  00000+0  12884-2 0  1066",
      "2 55461  43.0026 112.6129 0002058 275.3984  81.6360 15.26722363    15"
    ]
  },
  "55462": {
    "noradId": "55462",
    "tle": [
      "1 55462C 23015P   26106.99423611  .00028221  00000+0  10226-2 0  1060",
      "2 55462  43.0004 112.1809 0001400 262.8571  63.4631 15.27550494    19"
    ]
  },
  "55463": {
    "noradId": "55463",
    "tle": [
      "1 55463C 23015Q   26106.92756944  .00008199  00000+0  42699-3 0  1064",
      "2 55463  42.9982 115.1191 0000516 267.3776  50.6458 15.15231401    10"
    ]
  },
  "55464": {
    "noradId": "55464",
    "tle": [
      "1 55464C 23015R   26106.95187500  .00033303  00000+0  12375-2 0  1066",
      "2 55464  43.0023 112.5852 0001966 268.3891 115.1376 15.26721159    15"
    ]
  },
  "55465": {
    "noradId": "55465",
    "tle": [
      "1 55465C 23015S   26106.99145833  .00028096  00000+0  10438-2 0  1065",
      "2 55465  43.0013 112.1943 0001783 262.9408  48.8330 15.26728741    19"
    ]
  },
  "55466": {
    "noradId": "55466",
    "tle": [
      "1 55466C 23015T   26106.94909722  .00032621  00000+0  11817-2 0  1067",
      "2 55466  42.9994 112.7688 0001873 279.1960  16.9786 15.27556975    11"
    ]
  },
  "55467": {
    "noradId": "55467",
    "tle": [
      "1 55467C 23015U   26106.89284722  .00020043  00000+0  72605-3 0  1066",
      "2 55467  43.0021 112.7010 0001737 272.1153 237.1913 15.27563288    14"
    ]
  },
  "55468": {
    "noradId": "55468",
    "tle": [
      "1 55468C 23015V   26106.96923611  .00023742  00000+0  88213-3 0  1063",
      "2 55468  43.0025 112.4308 0001938 269.4503 233.4972 15.26728141    11"
    ]
  },
  "55469": {
    "noradId": "55469",
    "tle": [
      "1 55469C 23015W   26106.93937500  .00033812  00000+0  12567-2 0  1060",
      "2 55469  43.0009 112.4816 0001444 263.3684 124.1706 15.26712565    17"
    ]
  },
  "55470": {
    "noradId": "55470",
    "tle": [
      "1 55470C 23015X   26106.93798611  .00034976  00000+0  12992-2 0  1064",
      "2 55470  43.0020 112.5607 0002283 278.2821  71.6295 15.26730340    11"
    ]
  },
  "55471": {
    "noradId": "55471",
    "tle": [
      "1 55471C 23015Y   26106.90534722  .00028975  00000+0  10769-2 0  1065",
      "2 55471  43.0013 112.6493 0002198 269.1221 299.0112 15.26715487    15"
    ]
  },
  "55472": {
    "noradId": "55472",
    "tle": [
      "1 55472C 23015Z   26106.94423611  .00022909  00000+0  13843-2 0  1061",
      "2 55472  43.0003 104.1716 0001367 264.8267 315.6819 15.09909934    10"
    ]
  },
  "55474": {
    "noradId": "55474",
    "tle": [
      "1 55474C 23015AB  26106.94493056  .00031584  00000+0  11449-2 0  1062",
      "2 55474  43.0005 124.0172 0001435 260.6756  41.0399 15.27536072    16"
    ]
  },
  "55475": {
    "noradId": "55475",
    "tle": [
      "1 55475C 23015AC  26106.94354167  .00029903  00000+0  11111-2 0  1060",
      "2 55475  42.9995 112.7867 0001758 278.4438 352.0571 15.26724386    13"
    ]
  },
  "55477": {
    "noradId": "55477",
    "tle": [
      "1 55477C 23015AE  26106.92131944  .00025394  00000+0  15346-2 0  1060",
      "2 55477  43.0003 103.9037 0001414 265.5175 355.3990 15.09905887    11"
    ]
  },
  "55478": {
    "noradId": "55478",
    "tle": [
      "1 55478C 23015AF  26106.99006944  .00571810  00000+0  21034-1 0  1068",
      "2 55478  42.9989 101.8219 0001232 275.1126   0.0814 15.26786485    12"
    ]
  },
  "55479": {
    "noradId": "55479",
    "tle": [
      "1 55479C 23015AG  26106.98868056  .00014905  00000+0  90054-3 0  1065",
      "2 55479  43.0004 103.9648 0001423 276.9097 167.9557 15.09917857    17"
    ]
  }
}